     2.10           G: GLONASS NAV DATA                     RINEX VERSION / TYPE
teqc  2015Jun23                         20220407 01:25:41UTCPGM / RUN BY / DATE
Linux 2.4.21-27.ELsmp|Opteron|gcc -static|Linux x86_64|=+   COMMENT
  2022     3    14   -3.725290298462D-09                    CORR TO SYSTEM TIME
                                                            END OF HEADER
14 22  3 15  2 15  0.0 7.538776844740D-05 0.000000000000D+00 7.200000000000D+03
   -7.132407226562D+02-2.315510749817D+00-9.313225746155D-10 0.000000000000D+00
    1.303431347656D+04-1.905918121338D+00-0.000000000000D+00-7.000000000000D+00
    2.192234570312D+04 1.056893348694D+00-2.793967723846D-09 0.000000000000D+00
 3 22  3 15  2 15  0.0 5.314126610756D-05 0.000000000000D+00 7.200000000000D+03
   -6.174627929688D+03 2.594871520996D-01-2.793967723846D-09 0.000000000000D+00
    2.426557666016D+04-6.141109466553D-01 2.793967723846D-09 5.000000000000D+00
   -4.671937988281D+03-3.501428604126D+00-9.313225746155D-10 0.000000000000D+00
 4 22  3 15  2 15  0.0 1.319618895650D-04 1.818989403546D-12 7.200000000000D+03
    2.072186035156D+03-1.173086166382D-01-1.862645149231D-09 0.000000000000D+00
    2.231891357422D+04 1.669034957886D+00 9.313225746155D-10 6.000000000000D+00
    1.219897656250D+04-3.042265892029D+00-1.862645149231D-09 0.000000000000D+00
15 22  3 15  2 15  0.0 9.753648191690D-05-0.000000000000D+00 7.200000000000D+03
    1.418113525391D+04-1.075309753418D+00-1.862645149231D-09 0.000000000000D+00
    1.819444775391D+04-1.039621353149D+00-9.313225746155D-10 0.000000000000D+00
    1.089847314453D+04 3.138582229614D+00-1.862645149231D-09 0.000000000000D+00
24 22  3 15  2 15  0.0 8.441973477602D-05 1.818989403546D-12 7.200000000000D+03
   -2.385303808594D+04-4.117298126221D-02-9.313225746155D-10 0.000000000000D+00
    9.012140625000D+03 2.125234603882D-01 3.725290298462D-09 2.000000000000D+00
   -7.917421875000D+02 3.578388214111D+00-9.313225746155D-10 0.000000000000D+00
18 22  3 15  2 15  0.0 1.103151589632D-04 9.094947017729D-13 8.670000000000D+03
    3.258509277344D+03-2.998819351196D+00-1.862645149231D-09 0.000000000000D+00
    9.908916992188D+03 1.100852012634D+00 1.862645149231D-09-3.000000000000D+00
   -2.326135693359D+04 5.421161651611D-02 9.313225746155D-10 0.000000000000D+00
 2 22  3 15  2 45  0.0 5.125170573592D-04 0.000000000000D+00 9.000000000000D+03
   -1.060812158203D+04 1.600208282471D-01-9.313225746155D-10 0.000000000000D+00
    7.336472167969D+03-3.015970230103D+00 3.725290298462D-09-4.000000000000D+00
   -2.194882031250D+04-1.088826179504D+00 9.313225746155D-10 0.000000000000D+00
17 22  3 15  2 45  0.0 5.096076056361D-04 2.728484105319D-12 9.000000000000D+03
   -1.689755615234D+04-1.332033157349D+00-9.313225746155D-10 0.000000000000D+00
    1.506564941406D+04 9.342842102051D-01 3.725290298462D-09 4.000000000000D+00
   -1.177574609375D+04 3.101277351379D+00-0.000000000000D+00 0.000000000000D+00
 4 22  3 15  2 45  0.0 1.319646835327D-04 1.818989403546D-12 9.000000000000D+03
    2.133137207031D+03 1.494712829590D-01-1.862645149231D-09 0.000000000000D+00
    2.462365478516D+04 8.669681549072D-01 1.862645149231D-09 6.000000000000D+00
    6.322428710938D+03-3.444931030273D+00-1.862645149231D-09 0.000000000000D+00
 3 22  3 15  2 45  0.0 5.314219743013D-05 0.000000000000D+00 9.000000000000D+03
   -5.738309570312D+03 1.852273941040D-01-1.862645149231D-09 0.000000000000D+00
    2.237563427734D+04-1.472035408020D+00 3.725290298462D-09 5.000000000000D+00
   -1.071117822266D+04-3.164991378784D+00-0.000000000000D+00 0.000000000000D+00
15 22  3 15  2 45  0.0 9.753555059433D-05-0.000000000000D+00 9.000000000000D+03
    1.157294042969D+04-1.816656112671D+00-9.313225746155D-10 0.000000000000D+00
    1.610571142578D+04-1.236875534058D+00-0.000000000000D+00 0.000000000000D+00
    1.605392382812D+04 2.552567481995D+00-1.862645149231D-09 0.000000000000D+00
18 22  3 15  2 45  0.0 1.103170216084D-04 9.094947017729D-13 9.000000000000D+03
   -1.891623046875D+03-2.677890777588D+00-1.862645149231D-09 0.000000000000D+00
    1.225627783203D+04 1.479932785034D+00 2.793967723846D-09-3.000000000000D+00
   -2.226410009766D+04 1.046804428101D+00 0.000000000000D+00 0.000000000000D+00
24 22  3 15  2 45  0.0 8.442346006632D-05 1.818989403546D-12 9.000000000000D+03
   -2.318537890625D+04 7.614688873291D-01-0.000000000000D+00 0.000000000000D+00
    9.063558593750D+03-1.908760070801D-01 2.793967723846D-09 2.000000000000D+00
    5.596768554688D+03 3.473892211914D+00-1.862645149231D-09 0.000000000000D+00
14 22  3 15  2 45  0.0 7.538869976997D-05 0.000000000000D+00 9.330000000000D+03
   -5.248027343750D+03-2.685447692871D+00-0.000000000000D+00 0.000000000000D+00
    9.823554687500D+03-1.627339363098D+00 0.000000000000D+00-7.000000000000D+00
    2.295345166016D+04 8.132076263428D-02-2.793967723846D-09 0.000000000000D+00
 5 22  3 15  2 45  0.0 8.938834071159D-05 9.094947017729D-13 9.660000000000D+03
    8.820242675781D+03-3.630638122559D-03-9.313225746155D-10 0.000000000000D+00
    1.332701074219D+04 2.723001480103D+00-0.000000000000D+00 1.000000000000D+00
    1.988825683594D+04-1.826426506042D+00-1.862645149231D-09 0.000000000000D+00
17 22  3 15  3 15  0.0 5.096131935716D-04 2.728484105319D-12 1.080000000000D+04
   -1.856063574219D+04-5.192623138428D-01-0.000000000000D+00 0.000000000000D+00
    1.652614648438D+04 6.446657180786D-01 3.725290298462D-09 4.000000000000D+00
   -5.810791503906D+03 3.483443260193D+00-9.313225746155D-10 0.000000000000D+00
 4 22  3 15  3 15  0.0 1.319674775004D-04 1.818989403546D-12 1.080000000000D+04
    2.469462402344D+03 1.830196380615D-01-1.862645149231D-09 0.000000000000D+00
    2.538376464844D+04-2.832603454590D-02 2.793967723846D-09 6.000000000000D+00
   -4.275146484375D+01-3.581578254700D+00-9.313225746155D-10 0.000000000000D+00
 3 22  3 15  3 15  0.0 5.314219743013D-05 0.000000000000D+00 1.080000000000D+04
   -5.640327636719D+03-1.085033416748D-01-9.313225746155D-10 0.000000000000D+00
    1.904930615234D+04-2.192231178284D+00 3.725290298462D-09 5.000000000000D+00
   -1.591769726562D+04-2.582198143005D+00-0.000000000000D+00 0.000000000000D+00
 5 22  3 15  3 15  0.0 8.938927203417D-05 9.094947017729D-13 1.080000000000D+04
    9.148006835938D+03 3.407630920410D-01-1.862645149231D-09 0.000000000000D+00
    1.774845361328D+04 2.149680137634D+00 9.313225746155D-10 1.000000000000D+00
    1.587470507812D+04-2.604219436646D+00-1.862645149231D-09 0.000000000000D+00
15 22  3 15  3 15  0.0 9.753555059433D-05-0.000000000000D+00 1.080000000000D+04
    7.696754882812D+03-2.465736389160D+00-9.313225746155D-10 0.000000000000D+00
    1.389782861328D+04-1.175407409668D+00-0.000000000000D+00 0.000000000000D+00
    1.996925927734D+04 1.769633293152D+00-2.793967723846D-09 0.000000000000D+00
18 22  3 15  3 15  0.0 1.103188842535D-04 0.000000000000D+00 1.080000000000D+04
   -6.239724609375D+03-2.121193885803D+00-9.313225746155D-10 0.000000000000D+00
    1.511219238281D+04 1.652676582336D+00 3.725290298462D-09-3.000000000000D+00
   -1.954115283203D+04 1.959113121033D+00 0.000000000000D+00 0.000000000000D+00
24 22  3 15  3 15  0.0 8.442718535662D-05 1.818989403546D-12 1.080000000000D+04
   -2.121827197266D+04 1.387610435486D+00 0.000000000000D+00 0.000000000000D+00
    8.218180664062D+03-7.711362838745D-01 1.862645149231D-09 2.000000000000D+00
    1.155287939453D+04 3.101108551025D+00-1.862645149231D-09 0.000000000000D+00
17 22  3 15  3 45  0.0 5.096197128296D-04 2.728484105319D-12 1.260000000000D+04
   -1.881369189453D+04 2.160825729370D-01 0.000000000000D+00 0.000000000000D+00
    1.723968603516D+04 1.119165420532D-01 3.725290298462D-09 4.000000000000D+00
    6.028115234375D+02 3.596577644348D+00-9.313225746155D-10 0.000000000000D+00
 4 22  3 15  3 45  0.0 1.319712027907D-04 1.818989403546D-12 1.260000000000D+04
    2.644437988281D+03-2.784156799316D-02-9.313225746155D-10 0.000000000000D+00
    2.453623486328D+04-8.995075225830D-01 3.725290298462D-09 6.000000000000D+00
   -6.404551269531D+03-3.441113471985D+00-9.313225746155D-10 0.000000000000D+00
 3 22  3 15  3 45  0.0 5.314219743013D-05-0.000000000000D+00 1.260000000000D+04
   -6.221273437500D+03-5.551538467407D-01-0.000000000000D+00 0.000000000000D+00
    1.462318261719D+04-2.681010246277D+00 3.725290298462D-09 5.000000000000D+00
   -1.988616894531D+04-1.798404693604D+00 0.000000000000D+00 0.000000000000D+00
 5 22  3 15  3 45  0.0 8.939020335674D-05 9.094947017729D-13 1.260000000000D+04
    9.927381835938D+03 4.870300292969D-01-1.862645149231D-09 0.000000000000D+00
    2.094790917969D+04 1.380764007568D+00 1.862645149231D-09 1.000000000000D+00
    1.063390039062D+04-3.181140899658D+00-1.862645149231D-09 0.000000000000D+00
15 22  3 15  3 45  0.0 9.753555059433D-05-0.000000000000D+00 1.260000000000D+04
    2.813381835938D+03-2.920598030090D+00-0.000000000000D+00 0.000000000000D+00
    1.200522265625D+04-8.968820571899D-01 0.000000000000D+00 0.000000000000D+00
    2.234255078125D+04 8.502941131592D-01-2.793967723846D-09 0.000000000000D+00
18 22  3 15  3 45  0.0 1.103198155761D-04 0.000000000000D+00 1.260000000000D+04
   -9.443693847656D+03-1.424759864807D+00-0.000000000000D+00 0.000000000000D+00
    1.804511376953D+04 1.558924674988D+00 4.656612873077D-09-3.000000000000D+00
   -1.530236425781D+04 2.720030784607D+00-0.000000000000D+00 0.000000000000D+00
24 22  3 15  3 45  0.0 8.442997932434D-05 1.818989403546D-12 1.260000000000D+04
   -1.834019384766D+04 1.764816284180D+00 9.313225746155D-10 0.000000000000D+00
    6.235714843750D+03-1.437013626099D+00 9.313225746155D-10 2.000000000000D+00
    1.661683447266D+04 2.489068984985D+00-1.862645149231D-09 0.000000000000D+00
17 22  3 15  4 15  0.0 5.096253007650D-04 2.728484105319D-12 1.440000000000D+04
   -1.788981591797D+04 7.740716934204D-01 9.313225746155D-10 0.000000000000D+00
    1.682198876953D+04-5.981454849243D-01 2.793967723846D-09 4.000000000000D+00
    6.969907226562D+03 3.432127952576D+00-1.862645149231D-09 0.000000000000D+00
